start=new Date('2022-03-10T00:00:00.000Z').valueOf();
sats=[{"MEAN_MOTION_DOT":"0.00001137","SITE":"AFETR","TLE_LINE2":"2 47384  53.0549 109.8280 0001792  58.5463 301.5701 15.06382565 63278","MEAN_MOTION":"15.06382565","RCS_SIZE":"LARGE","CENTER_NAME":"EARTH","GP_ID":"198359903","MEAN_ELEMENT_THEORY":"SGP4","OBJECT_ID":"2021-005AM","ELEMENT_SET_NO":"999","FILE":"3352875","RA_OF_ASC_NODE":"109.8280","TLE_LINE1":"1 47384U 21005AM  22068.79809851  .00001137  00000-0  95253-4 0  9999","ECCENTRICITY":"0.00017920","COUNTRY_CODE":"US","REF_FRAME":"TEME","EPOCH":"2022-03-09T19:09:15.711264","MEAN_MOTION_DDOT":"0.0000000000000","TIME_SYSTEM":"UTC","BSTAR":"0.00009525300000","REV_AT_EPOCH":"6327","PERIAPSIS":"546.026","CLASSIFICATION_TYPE":"U","ARG_OF_PERICENTER":"58.5463","NORAD_CAT_ID":"47384","SEMIMAJOR_AXIS":"6925.402","EPHEMERIS_TYPE":"0","INCLINATION":"53.0549","MEAN_ANOMALY":"301.5701","APOAPSIS":"548.508","OBJECT_TYPE":"PAYLOAD","LAUNCH_DATE":"2021-01-20","OBJECT_NAME":"STARLINK-2104","DECAY_DATE":null,"PERIOD":"95.593"},{"NORAD_CAT_ID":"47385","ARG_OF_PERICENTER":"53.2609","CLASSIFICATION_TYPE":"U","PERIAPSIS":"546.143","BSTAR":"0.00017539000000","REV_AT_EPOCH":"6327","MEAN_MOTION_DDOT":"0.0000000000000","TIME_SYSTEM":"UTC","EPOCH":"2022-03-09T19:37:08.545728","COUNTRY_CODE":"US","REF_FRAME":"TEME","DECAY_DATE":null,"OBJECT_NAME":"STARLINK-2105","PERIOD":"95.593","LAUNCH_DATE":"2021-01-20","APOAPSIS":"548.347","OBJECT_TYPE":"PAYLOAD","EPHEMERIS_TYPE":"0","INCLINATION":"53.0545","MEAN_ANOMALY":"306.8525","SEMIMAJOR_AXIS":"6925.380","MEAN_MOTION":"15.06389688","TLE_LINE2":"2 47385  53.0545 109.7332 0001591  53.2609 306.8525 15.06389688 63278","SITE":"AFETR","MEAN_MOTION_DOT":"0.00002331","RA_OF_ASC_NODE":"109.7332","ECCENTRICITY":"0.00015910","TLE_LINE1":"1 47385U 21005AN  22068.81746002  .00002331  00000-0  17539-3 0  9998","FILE":"3352875","ELEMENT_SET_NO":"999","GP_ID":"198360154","CENTER_NAME":"EARTH","MEAN_ELEMENT_THEORY":"SGP4","OBJECT_ID":"2021-005AN","RCS_SIZE":"LARGE"},{"REV_AT_EPOCH":"6328","BSTAR":"0.00017612000000","PERIAPSIS":"546.097","REF_FRAME":"TEME","COUNTRY_CODE":"US","EPOCH":"2022-03-09T20:19:36.076512","TIME_SYSTEM":"UTC","MEAN_MOTION_DDOT":"0.0000000000000","ARG_OF_PERICENTER":"47.8635","NORAD_CAT_ID":"47386","CLASSIFICATION_TYPE":"U","MEAN_ANOMALY":"312.2495","EPHEMERIS_TYPE":"0","INCLINATION":"53.0538","SEMIMAJOR_AXIS":"6925.381","DECAY_DATE":null,"OBJECT_NAME":"STARLINK-2106","PERIOD":"95.593","OBJECT_TYPE":"PAYLOAD","APOAPSIS":"548.394","LAUNCH_DATE":"2021-01-20","SITE":"AFETR","MEAN_MOTION_DOT":"0.00002342","MEAN_MOTION":"15.06389559","TLE_LINE2":"2 47386  53.0538 109.6022 0001659  47.8635 312.2495 15.06389559 63284","OBJECT_ID":"2021-005AP","MEAN_ELEMENT_THEORY":"SGP4","GP_ID":"198360405","CENTER_NAME":"EARTH","RCS_SIZE":"LARGE","FILE":"3352875","ECCENTRICITY":"0.00016590","TLE_LINE1":"1 47386U 21005AP  22068.84694533  .00002342  00000-0  17612-3 0  9997","RA_OF_ASC_NODE":"109.6022","ELEMENT_SET_NO":"999"},{"MEAN_MOTION":"15.06385413","TLE_LINE2":"2 47387  53.0523 139.3654 0001441  68.2531 291.8612 15.06385413 62862","SITE":"AFETR","MEAN_MOTION_DOT":"0.00003942","FILE":"3352875","RA_OF_ASC_NODE":"139.3654","ECCENTRICITY":"0.00014410","TLE_LINE1":"1 47387U 21005AQ  22068.89949063  .00003942  00000-0  28347-3 0  9998","ELEMENT_SET_NO":"999","GP_ID":"198359153","MEAN_ELEMENT_THEORY":"SGP4","CENTER_NAME":"EARTH","OBJECT_ID":"2021-005AQ","RCS_SIZE":"LARGE","ARG_OF_PERICENTER":"68.2531","NORAD_CAT_ID":"47387","CLASSIFICATION_TYPE":"U","BSTAR":"0.00028347000000","REV_AT_EPOCH":"6286","PERIAPSIS":"546.260","COUNTRY_CODE":"US","REF_FRAME":"TEME","EPOCH":"2022-03-09T21:35:15.990432","MEAN_MOTION_DDOT":"0.0000000000000","TIME_SYSTEM":"UTC","PERIOD":"95.593","DECAY_DATE":null,"OBJECT_NAME":"STARLINK-2108","APOAPSIS":"548.256","OBJECT_TYPE":"PAYLOAD","LAUNCH_DATE":"2021-01-20","EPHEMERIS_TYPE":"0","INCLINATION":"53.0523","MEAN_ANOMALY":"291.8612","SEMIMAJOR_AXIS":"6925.393"},{"SITE":"AFETR","MEAN_MOTION_DOT":"0.00010016","MEAN_MOTION":"15.06406613","TLE_LINE2":"2 47388  53.0517 139.2999 0001572  47.0030 313.1090 15.06406613 62865","OBJECT_ID":"2021-005AR","GP_ID":"198359403","CENTER_NAME":"EARTH","MEAN_ELEMENT_THEORY":"SGP4","RCS_SIZE":"LARGE","FILE":"3352875","ECCENTRICITY":"0.00015720","TLE_LINE1":"1 47388U 21005AR  22068.91421807  .00010016  00000-0  69025-3 0  9991","RA_OF_ASC_NODE":"139.2999","ELEMENT_SET_NO":"999","REV_AT_EPOCH":"6286","BSTAR":"0.00069025000000","PERIAPSIS":"546.105","COUNTRY_CODE":"US","REF_FRAME":"TEME","EPOCH":"2022-03-09T21:56:28.441248","TIME_SYSTEM":"UTC","MEAN_MOTION_DDOT":"0.0000000000000","ARG_OF_PERICENTER":"47.0030","NORAD_CAT_ID":"47388","CLASSIFICATION_TYPE":"U","MEAN_ANOMALY":"313.1090","INCLINATION":"53.0517","EPHEMERIS_TYPE":"0","SEMIMAJOR_AXIS":"6925.328","OBJECT_NAME":"STARLINK-2109","DECAY_DATE":null,"PERIOD":"95.592","OBJECT_TYPE":"PAYLOAD","APOAPSIS":"548.282","LAUNCH_DATE":"2021-01-20"},{"MEAN_MOTION":"15.06389781","TLE_LINE2":"2 47389  53.0557 119.6897 0001545  60.1065 300.0077 15.06389781 63130","SITE":"AFETR","MEAN_MOTION_DOT":"0.00003423","FILE":"3352875","ECCENTRICITY":"0.00015450","TLE_LINE1":"1 47389U 21005AS  22068.82760368  .00003423  00000-0  24862-3 0  9994","RA_OF_ASC_NODE":"119.6897","ELEMENT_SET_NO":"999","OBJECT_ID":"2021-005AS","GP_ID":"198360655","CENTER_NAME":"EARTH","MEAN_ELEMENT_THEORY":"SGP4","RCS_SIZE":"LARGE","ARG_OF_PERICENTER":"60.1065","NORAD_CAT_ID":"47389","CLASSIFICATION_TYPE":"U","REV_AT_EPOCH":"6313","BSTAR":"0.00024862000000","PERIAPSIS":"546.175","COUNTRY_CODE":"US","REF_FRAME":"TEME","EPOCH":"2022-03-09T19:51:44.957952","TIME_SYSTEM":"UTC","MEAN_MOTION_DDOT":"0.0000000000000","OBJECT_NAME":"STARLINK-2110","DECAY_DATE":null,"PERIOD":"95.593","OBJECT_TYPE":"PAYLOAD","APOAPSIS":"548.315","LAUNCH_DATE":"2021-01-20","MEAN_ANOMALY":"300.0077","INCLINATION":"53.0557","EPHEMERIS_TYPE":"0","SEMIMAJOR_AXIS":"6925.380"},{"LAUNCH_DATE":"2021-01-20","APOAPSIS":"548.237","OBJECT_TYPE":"PAYLOAD","PERIOD":"95.593","DECAY_DATE":null,"OBJECT_NAME":"STARLINK-2111","SEMIMAJOR_AXIS":"6925.402","MEAN_ANOMALY":"299.3062","INCLINATION":"53.0552","EPHEMERIS_TYPE":"0","CLASSIFICATION_TYPE":"U","NORAD_CAT_ID":"47390","ARG_OF_PERICENTER":"60.8067","TIME_SYSTEM":"UTC","MEAN_MOTION_DDOT":"0.0000000000000","COUNTRY_CODE":"US","REF_FRAME":"TEME","EPOCH":"2022-03-09T21:19:19.859520","PERIAPSIS":"546.298","REV_AT_EPOCH":"6286","BSTAR":"0.00018105000000","ELEMENT_SET_NO":"999","ECCENTRICITY":"0.00014000","TLE_LINE1":"1 47390U 21005AT  22068.88842430  .00002415  00000-0  18105-3 0  9996","RA_OF_ASC_NODE":"139.4085","FILE":"3352875","RCS_SIZE":"LARGE","OBJECT_ID":"2021-005AT","GP_ID":"198360906","MEAN_ELEMENT_THEORY":"SGP4","CENTER_NAME":"EARTH","TLE_LINE2":"2 47390  53.0552 139.4085 0001400  60.8067 299.3062 15.06382411 62861","MEAN_MOTION":"15.06382411","MEAN_MOTION_DOT":"0.00002415","SITE":"AFETR"},{"CLASSIFICATION_TYPE":"U","NORAD_CAT_ID":"47391","ARG_OF_PERICENTER":"56.5891","TIME_SYSTEM":"UTC","MEAN_MOTION_DDOT":"0.0000000000000","REF_FRAME":"TEME","COUNTRY_CODE":"US","EPOCH":"2022-03-09T19:57:00.421632","PERIAPSIS":"546.129","REV_AT_EPOCH":"6327","BSTAR":"-0.00001532400000","LAUNCH_DATE":"2021-01-20","OBJECT_TYPE":"PAYLOAD","APOAPSIS":"548.363","PERIOD":"95.593","DECAY_DATE":null,"OBJECT_NAME":"STARLINK-2112","SEMIMAJOR_AXIS":"6925.381","MEAN_ANOMALY":"303.5252","EPHEMERIS_TYPE":"0","INCLINATION":"53.0561","TLE_LINE2":"2 47391  53.0561 109.6584 0001613  56.5891 303.5252 15.06389365 63278","MEAN_MOTION":"15.06389365","MEAN_MOTION_DOT":"-0.00000510","SITE":"AFETR","ELEMENT_SET_NO":"999","ECCENTRICITY":"0.00016130","TLE_LINE1":"1 47391U 21005AU  22068.83125488 -.00000510  00000-0 -15324-4 0  9996","RA_OF_ASC_NODE":"109.6584","FILE":"3352875","RCS_SIZE":"LARGE","OBJECT_ID":"2021-005AU","MEAN_ELEMENT_THEORY":"SGP4","GP_ID":"198359654","CENTER_NAME":"EARTH"},{"TLE_LINE1":"1 47392U 21005AV  22068.83222698  .00002368  00000-0  17795-3 0  9992","ECCENTRICITY":"0.00016240","RA_OF_ASC_NODE":"109.6563","FILE":"3352875","ELEMENT_SET_NO":"999","OBJECT_ID":"2021-005AV","GP_ID":"198359904","MEAN_ELEMENT_THEORY":"SGP4","CENTER_NAME":"EARTH","RCS_SIZE":"LARGE","MEAN_MOTION":"15.06370197","TLE_LINE2":"2 47392  53.0551 109.6563 0001624  64.1972 295.9185 15.06370197 63274","SITE":"AFETR","MEAN_MOTION_DOT":"0.00002368","DECAY_DATE":null,"PERIOD":"95.594","OBJECT_NAME":"STARLINK-2113","LAUNCH_DATE":"2021-01-20","OBJECT_TYPE":"PAYLOAD","APOAPSIS":"548.430","MEAN_ANOMALY":"295.9185","EPHEMERIS_TYPE":"0","INCLINATION":"53.0551","SEMIMAJOR_AXIS":"6925.440","NORAD_CAT_ID":"47392","ARG_OF_PERICENTER":"64.1972","CLASSIFICATION_TYPE":"U","PERIAPSIS":"546.180","REV_AT_EPOCH":"6327","BSTAR":"0.00017795000000","TIME_SYSTEM":"UTC","MEAN_MOTION_DDOT":"0.0000000000000","EPOCH":"2022-03-09T19:58:24.411072","COUNTRY_CODE":"US","REF_FRAME":"TEME"},{"SEMIMAJOR_AXIS":"6925.387","EPHEMERIS_TYPE":"0","INCLINATION":"53.0539","MEAN_ANOMALY":"302.4693","APOAPSIS":"548.439","OBJECT_TYPE":"PAYLOAD","LAUNCH_DATE":"2021-01-20","PERIOD":"95.593","DECAY_DATE":null,"OBJECT_NAME":"STARLINK-2114","EPOCH":"2022-03-09T08:38:17.051712","COUNTRY_CODE":"US","REF_FRAME":"TEME","MEAN_MOTION_DDOT":"0.0000000000000","TIME_SYSTEM":"UTC","BSTAR":"-0.00003421400000","REV_AT_EPOCH":"6355","PERIAPSIS":"546.065","CLASSIFICATION_TYPE":"U","ARG_OF_PERICENTER":"57.6462","NORAD_CAT_ID":"47393","RCS_SIZE":"LARGE","CENTER_NAME":"EARTH","GP_ID":"198325083","MEAN_ELEMENT_THEORY":"SGP4","OBJECT_ID":"2021-005AW","ELEMENT_SET_NO":"999","FILE":"3352425","RA_OF_ASC_NODE":"86.7739","ECCENTRICITY":"0.00017140","TLE_LINE1":"1 47393U 21005AW  22068.35991958 -.00000791  00000-0 -34214-4 0  9998","MEAN_MOTION_DOT":"-0.00000791","SITE":"AFETR","TLE_LINE2":"2 47393  53.0539  86.7739 0001714  57.6462 302.4693 15.06387479 63552","MEAN_MOTION":"15.06387479"}];
